[{"OBJECT_NAME":"ONEWEB-0642","OBJECT_ID":"2023-029L","EPOCH":"2026-03-07T06:37:52.012416","MEAN_MOTION":13.19726565,"ECCENTRICITY":0.00022664,"INCLINATION":87.9232,"RA_OF_ASC_NODE":325.2828,"ARG_OF_PERICENTER":98.3474,"MEAN_ANOMALY":261.7916,"EPHEMERIS_TYPE":0,"CLASSIFICATION_TYPE":"U","NORAD_CAT_ID":55806,"ELEMENT_SET_NO":999,"REV_AT_EPOCH":14546,"BSTAR":0.00022228764,"MEAN_MOTION_DOT":1.02e-6,"MEAN_MOTION_DDOT":0},{"OBJECT_NAME":"ONEWEB-0643","OBJECT_ID":"2023-029M","EPOCH":"2026-03-07T05:20:14.240256","MEAN_MOTION":13.14502625,"ECCENTRICITY":0.00021908,"INCLINATION":87.8984,"RA_OF_ASC_NODE":310.0835,"ARG_OF_PERICENTER":91.9408,"MEAN_ANOMALY":268.1973,"EPHEMERIS_TYPE":0,"CLASSIFICATION_TYPE":"U","NORAD_CAT_ID":55807,"ELEMENT_SET_NO":999,"REV_AT_EPOCH":14599,"BSTAR":0.00015739617,"MEAN_MOTION_DOT":7.1e-7,"MEAN_MOTION_DDOT":0},{"OBJECT_NAME":"ONEWEB-0644","OBJECT_ID":"2023-029N","EPOCH":"2026-03-07T06:31:03.140832","MEAN_MOTION":13.19726873,"ECCENTRICITY":0.00019902,"INCLINATION":87.9223,"RA_OF_ASC_NODE":325.2911,"ARG_OF_PERICENTER":88.6556,"MEAN_ANOMALY":271.4805,"EPHEMERIS_TYPE":0,"CLASSIFICATION_TYPE":"U","NORAD_CAT_ID":55808,"ELEMENT_SET_NO":999,"REV_AT_EPOCH":14546,"BSTAR":0.00022161819,"MEAN_MOTION_DOT":1.02e-6,"MEAN_MOTION_DDOT":0},{"OBJECT_NAME":"ONEWEB-0645","OBJECT_ID":"2023-029P","EPOCH":"2026-03-07T05:13:42.534624","MEAN_MOTION":13.19725139,"ECCENTRICITY":0.00016128,"INCLINATION":87.9231,"RA_OF_ASC_NODE":325.2935,"ARG_OF_PERICENTER":97.8119,"MEAN_ANOMALY":262.3196,"EPHEMERIS_TYPE":0,"CLASSIFICATION_TYPE":"U","NORAD_CAT_ID":55809,"ELEMENT_SET_NO":999,"REV_AT_EPOCH":14545,"BSTAR":0.00013985566,"MEAN_MOTION_DOT":6.9e-7,"MEAN_MOTION_DDOT":0},{"OBJECT_NAME":"ONEWEB-0646","OBJECT_ID":"2023-029Q","EPOCH":"2026-03-07T05:38:42.625248","MEAN_MOTION":13.19727682,"ECCENTRICITY":0.00018894,"INCLINATION":87.9229,"RA_OF_ASC_NODE":325.2902,"ARG_OF_PERICENTER":86.1313,"MEAN_ANOMALY":274.0036,"EPHEMERIS_TYPE":0,"CLASSIFICATION_TYPE":"U","NORAD_CAT_ID":55810,"ELEMENT_SET_NO":999,"REV_AT_EPOCH":14544,"BSTAR":0.00030694145,"MEAN_MOTION_DOT":1.36e-6,"MEAN_MOTION_DDOT":0},{"OBJECT_NAME":"ONEWEB-0648","OBJECT_ID":"2023-029R","EPOCH":"2026-03-07T04:34:33.949344","MEAN_MOTION":13.1450197,"ECCENTRICITY":0.00018952,"INCLINATION":87.8988,"RA_OF_ASC_NODE":310.0543,"ARG_OF_PERICENTER":113.1517,"MEAN_ANOMALY":246.9812,"EPHEMERIS_TYPE":0,"CLASSIFICATION_TYPE":"U","NORAD_CAT_ID":55811,"ELEMENT_SET_NO":999,"REV_AT_EPOCH":14599,"BSTAR":0.00066442263,"MEAN_MOTION_DOT":2.59e-6,"MEAN_MOTION_DDOT":0},{"OBJECT_NAME":"ONEWEB-0649","OBJECT_ID":"2023-029S","EPOCH":"2026-03-07T06:15:06.494976","MEAN_MOTION":13.19725903,"ECCENTRICITY":0.00016621,"INCLINATION":87.9233,"RA_OF_ASC_NODE":325.282,"ARG_OF_PERICENTER":91.9,"MEAN_ANOMALY":268.2323,"EPHEMERIS_TYPE":0,"CLASSIFICATION_TYPE":"U","NORAD_CAT_ID":55812,"ELEMENT_SET_NO":999,"REV_AT_EPOCH":14548,"BSTAR":0.00017572319,"MEAN_MOTION_DOT":8.3e-7,"MEAN_MOTION_DDOT":0},{"OBJECT_NAME":"ONEWEB-0650","OBJECT_ID":"2023-029T","EPOCH":"2026-03-07T06:08:17.022912","MEAN_MOTION":13.19727905,"ECCENTRICITY":0.00019338,"INCLINATION":87.923,"RA_OF_ASC_NODE":325.2859,"ARG_OF_PERICENTER":92.7657,"MEAN_ANOMALY":267.3697,"EPHEMERIS_TYPE":0,"CLASSIFICATION_TYPE":"U","NORAD_CAT_ID":55813,"ELEMENT_SET_NO":999,"REV_AT_EPOCH":14545,"BSTAR":0.00018752493,"MEAN_MOTION_DOT":8.8e-7,"MEAN_MOTION_DDOT":0},{"OBJECT_NAME":"ONEWEB-0652","OBJECT_ID":"2023-029U","EPOCH":"2026-03-07T04:07:09.622560","MEAN_MOTION":13.14502473,"ECCENTRICITY":0.00015918,"INCLINATION":87.8986,"RA_OF_ASC_NODE":310.0736,"ARG_OF_PERICENTER":75.8438,"MEAN_ANOMALY":284.2868,"EPHEMERIS_TYPE":0,"CLASSIFICATION_TYPE":"U","NORAD_CAT_ID":55814,"ELEMENT_SET_NO":999,"REV_AT_EPOCH":14596,"BSTAR":-0.00031072852,"MEAN_MOTION_DOT":-1.02e-6,"MEAN_MOTION_DDOT":0},{"OBJECT_NAME":"ONEWEB-0653","OBJECT_ID":"2023-029V","EPOCH":"2026-03-07T05:33:55.965600","MEAN_MOTION":13.1450255,"ECCENTRICITY":0.00014251,"INCLINATION":87.899,"RA_OF_ASC_NODE":310.0524,"ARG_OF_PERICENTER":78.0607,"MEAN_ANOMALY":282.0683,"EPHEMERIS_TYPE":0,"CLASSIFICATION_TYPE":"U","NORAD_CAT_ID":55815,"ELEMENT_SET_NO":999,"REV_AT_EPOCH":14600,"BSTAR":-0.00046002952,"MEAN_MOTION_DOT":-1.58e-6,"MEAN_MOTION_DDOT":0},{"OBJECT_NAME":"ONEWEB-0654","OBJECT_ID":"2023-029W","EPOCH":"2026-03-07T05:27:04.873536","MEAN_MOTION":13.14502802,"ECCENTRICITY":0.00015225,"INCLINATION":87.8984,"RA_OF_ASC_NODE":310.0527,"ARG_OF_PERICENTER":67.6889,"MEAN_ANOMALY":292.4402,"EPHEMERIS_TYPE":0,"CLASSIFICATION_TYPE":"U","NORAD_CAT_ID":55816,"ELEMENT_SET_NO":999,"REV_AT_EPOCH":14602,"BSTAR":-0.00013245432,"MEAN_MOTION_DOT":-3.6e-7,"MEAN_MOTION_DDOT":0},{"OBJECT_NAME":"ONEWEB-0656","OBJECT_ID":"2023-029X","EPOCH":"2026-03-07T03:49:56.866944","MEAN_MOTION":13.20773021,"ECCENTRICITY":0.00014506,"INCLINATION":87.9175,"RA_OF_ASC_NODE":294.8002,"ARG_OF_PERICENTER":68.693,"MEAN_ANOMALY":291.4358,"EPHEMERIS_TYPE":0,"CLASSIFICATION_TYPE":"U","NORAD_CAT_ID":55817,"ELEMENT_SET_NO":999,"REV_AT_EPOCH":14768,"BSTAR":0.00010227257,"MEAN_MOTION_DOT":5.5e-7,"MEAN_MOTION_DDOT":0},{"OBJECT_NAME":"ONEWEB-0657","OBJECT_ID":"2023-029Y","EPOCH":"2026-03-07T06:01:28.998912","MEAN_MOTION":13.19726367,"ECCENTRICITY":0.00022039,"INCLINATION":87.9233,"RA_OF_ASC_NODE":325.2859,"ARG_OF_PERICENTER":65.645,"MEAN_ANOMALY":294.4912,"EPHEMERIS_TYPE":0,"CLASSIFICATION_TYPE":"U","NORAD_CAT_ID":55818,"ELEMENT_SET_NO":999,"REV_AT_EPOCH":14546,"BSTAR":9.5928461e-5,"MEAN_MOTION_DOT":5.1e-7,"MEAN_MOTION_DDOT":0},{"OBJECT_NAME":"ONEWEB-0658","OBJECT_ID":"2023-029Z","EPOCH":"2026-03-07T05:54:39.388608","MEAN_MOTION":13.19726524,"ECCENTRICITY":0.00019726,"INCLINATION":87.9242,"RA_OF_ASC_NODE":325.2534,"ARG_OF_PERICENTER":90.5177,"MEAN_ANOMALY":269.6182,"EPHEMERIS_TYPE":0,"CLASSIFICATION_TYPE":"U","NORAD_CAT_ID":55819,"ELEMENT_SET_NO":999,"REV_AT_EPOCH":14547,"BSTAR":0.00014512011,"MEAN_MOTION_DOT":7.1e-7,"MEAN_MOTION_DDOT":0},{"OBJECT_NAME":"ONEWEB-0660","OBJECT_ID":"2023-029AA","EPOCH":"2026-03-07T04:55:07.307616","MEAN_MOTION":13.14503058,"ECCENTRICITY":0.00014469,"INCLINATION":87.8994,"RA_OF_ASC_NODE":310.044,"ARG_OF_PERICENTER":98.0197,"MEAN_ANOMALY":262.1097,"EPHEMERIS_TYPE":0,"CLASSIFICATION_TYPE":"U","NORAD_CAT_ID":55820,"ELEMENT_SET_NO":999,"REV_AT_EPOCH":14600,"BSTAR":0.000876522,"MEAN_MOTION_DOT":3.38e-6,"MEAN_MOTION_DDOT":0},{"OBJECT_NAME":"ONEWEB-0661","OBJECT_ID":"2023-029AB","EPOCH":"2026-03-07T05:45:20.890368","MEAN_MOTION":13.14502553,"ECCENTRICITY":0.00013482,"INCLINATION":87.8983,"RA_OF_ASC_NODE":310.0932,"ARG_OF_PERICENTER":90.3553,"MEAN_ANOMALY":269.7731,"EPHEMERIS_TYPE":0,"CLASSIFICATION_TYPE":"U","NORAD_CAT_ID":55821,"ELEMENT_SET_NO":999,"REV_AT_EPOCH":14599,"BSTAR":-0.0005334759,"MEAN_MOTION_DOT":-1.85e-6,"MEAN_MOTION_DDOT":0}]
