ONEWEB-0642             
1 55806U 23029L   26066.27629644  .00000102  00000+0  22229-3 0  9992
2 55806  87.9232 325.2828 0002266  98.3474 261.7916 13.19726565145465
ONEWEB-0643             
1 55807U 23029M   26066.22238704  .00000071  00000+0  15740-3 0  9996
2 55807  87.8984 310.0835 0002190  91.9408 268.1973 13.14502625145997
ONEWEB-0644             
1 55808U 23029N   26066.27156413  .00000102  00000+0  22162-3 0  9999
2 55808  87.9223 325.2911 0001990  88.6556 271.4805 13.19726873145463
ONEWEB-0645             
1 55809U 23029P   26066.21785341  .00000069  00000+0  13986-3 0  9998
2 55809  87.9231 325.2935 0001612  97.8119 262.3196 13.19725139145452
ONEWEB-0646             
1 55810U 23029Q   26066.23521557  .00000136  00000+0  30694-3 0  9999
2 55810  87.9229 325.2902 0001889  86.1313 274.0036 13.19727682145445
ONEWEB-0648             
1 55811U 23029R   26066.19067071  .00000259  00000+0  66442-3 0  9997
2 55811  87.8988 310.0543 0001895 113.1517 246.9812 13.14501970145999
ONEWEB-0649             
1 55812U 23029S   26066.26049184  .00000083  00000+0  17572-3 0  9996
2 55812  87.9233 325.2820 0001662  91.9000 268.2323 13.19725903145489
ONEWEB-0650             
1 55813U 23029T   26066.25575258  .00000088  00000+0  18752-3 0  9998
2 55813  87.9230 325.2859 0001933  92.7657 267.3697 13.19727905145452
ONEWEB-0652             
1 55814U 23029U   26066.17163915 -.00000102  00000+0 -31073-3 0  9993
2 55814  87.8986 310.0736 0001591  75.8438 284.2868 13.14502473145965
ONEWEB-0653             
1 55815U 23029V   26066.23189775 -.00000158  00000+0 -46003-3 0  9993
2 55815  87.8990 310.0524 0001425  78.0607 282.0683 13.14502550146008
ONEWEB-0654             
1 55816U 23029W   26066.22713974 -.00000036  00000+0 -13245-3 0  9994
2 55816  87.8984 310.0527 0001522  67.6889 292.4402 13.14502802146025
ONEWEB-0656             
1 55817U 23029X   26066.15968596  .00000055  00000+0  10227-3 0  9995
2 55817  87.9175 294.8002 0001450  68.6930 291.4358 13.20773021147686
ONEWEB-0657             
1 55818U 23029Y   26066.25103008  .00000051  00000+0  95928-4 0  9994
2 55818  87.9233 325.2859 0002203  65.6450 294.4912 13.19726367145464
ONEWEB-0658             
1 55819U 23029Z   26066.24628922  .00000071  00000+0  14512-3 0  9992
2 55819  87.9242 325.2534 0001972  90.5177 269.6182 13.19726524145479
ONEWEB-0660             
1 55820U 23029AA  26066.20494569  .00000338  00000+0  87652-3 0  9999
2 55820  87.8994 310.0440 0001446  98.0197 262.1097 13.14503058146006
ONEWEB-0661             
1 55821U 23029AB  26066.23982512 -.00000185  00000+0 -53348-3 0  9990
2 55821  87.8983 310.0932 0001348  90.3553 269.7731 13.14502553145997
